1 45739U 20038K   23105.83592434  .00034678  00000-0  23319-2 0  9998
2 45739  53.0527 269.9850 0000975  77.8920 282.2179 15.06458062157152
1 45739U 20038K   23106.43305992  .00002094  00000-0  15953-3 0  9999
2 45739  53.0519 267.3041 0001467  58.7720 301.3413 15.06377309157248
1 45739U 20038K   23106.76480344  .00019858  00000-0  13496-2 0  9995
2 45739  53.0523 265.8148 0001262  47.7307 312.3789 15.06362689158262
1 45739U 20038K   23106.83115304  .00029445  00000-0  19893-2 0  9994
2 45739  53.0530 265.5178 0001317  44.5071 315.6024 15.06364444157307
1 45739U 20038K   23107.42827961  .00031868  00000-0  21485-2 0  9991
2 45739  53.0532 262.8367 0001375  45.4853 314.6248 15.06402580157391
1 45739U 20038K   23107.42827961  .00031868  00000-0  21485-2 0  9991
2 45739  53.0532 262.8367 0001375  45.4853 314.6248 15.06402580158369
1 45739U 20038K   23107.69366344  .00035721  00000-0  24033-2 0  9997
2 45739  53.0531 261.6452 0001398  44.2921 315.8179 15.06423989157437
1 45739U 20038K   23108.15809003 -.00002276  00000-0 -13395-3 0  9994
2 45739  53.0529 259.5621 0001501  36.6326 323.4765 15.06401328158472
1 45739U 20038K   23108.42348269  .00000797  00000-0  72395-4 0  9996
2 45739  53.0512 258.3690 0001816  62.6306 297.4868 15.06390594157546
1 45739U 20038K   23108.55617906  .00012742  00000-0  87312-3 0  9994
2 45739  53.0533 257.7724 0001184  75.4461 284.6659 15.06384776158533
1 45739U 20038K   23108.68887424  .00025831  00000-0  17472-2 0  9994
2 45739  53.0536 257.1772 0001082  75.6752 284.4357 15.06388415157586
1 45739U 20038K   23109.41868151  .00036721  00000-0  24686-2 0  9997
2 45739  53.0537 253.9002 0001195  59.8950 300.2158 15.06440889157698
1 45739U 20038K   23109.41868151  .00036721  00000-0  24686-2 0  9997
2 45739  53.0537 253.9002 0001195  59.8950 300.2158 15.06440889158666
1 45739U 20038K   23109.68405924  .00036879  00000-0  24777-2 0  9996
2 45739  53.0536 252.7090 0001305  54.8078 305.3033 15.06461014157736
1 45739U 20038K   23110.41388077 -.00002342  00000-0 -13833-3 0  9990
2 45739  53.0546 249.4327 0003135  52.6675 307.4599 15.06388597157841
1 45739U 20038K   23110.67927901  .00005171  00000-0  36634-3 0  9998
2 45739  53.0541 248.2430 0001463 290.9827  69.1006 15.06341263158852
1 45739U 20038K   23110.81197783  .00019924  00000-0  13546-2 0  9998
2 45739  53.0539 247.6457 0001232  83.1779 276.9350 15.06347838157902
1 45739U 20038K   23111.07737338  .00028725  00000-0  19415-2 0  9993
2 45739  53.0537 246.4541 0001174  85.6338 274.4785 15.06361513157949
1 45739U 20038K   23111.07737338  .00028725  00000-0  19415-2 0  9993
2 45739  53.0537 246.4541 0001174  85.6338 274.4785 15.06361513158917
1 45739U 20038K   23111.87354162  .00034507  00000-0  23234-2 0  9990
2 45739  53.0529 242.8802 0001230  81.9529 278.1599 15.06412792158068
1 45739U 20038K   23111.87354162  .00034507  00000-0  23234-2 0  9990
2 45739  53.0529 242.8802 0001230  81.9529 278.1599 15.06412792159036
1 45739U 20038K   23112.86873710  .00029502  00000-0  19893-2 0  9990
2 45739  53.0526 238.4130 0001146  69.7010 290.4102 15.06435703158216
1 45739U 20038K   23113.86389418  .00045072  00000-0  30167-2 0  9995
2 45739  53.0522 233.9442 0001246  82.9283 277.1848 15.06508093158366
1 45739U 20038K   23114.06293955 -.00023113  00000-0 -15367-2 0  9997
2 45739  53.0522 233.0519 0001362  84.4161 275.6983 15.06426556158392
1 45739U 20038K   23114.06293955 -.00023113  00000-0 -15367-2 0  9997
2 45739  53.0522 233.0519 0001362  84.4161 275.6983 15.06426556159360
1 45739U 20038K   23115.45623406  .00024462  00000-0  16554-2 0  9994
2 45739  53.0525 226.7966 0001302 114.3818 245.7306 15.06400737159577
1 45739U 20038K   23115.78798515  .00009860  00000-0  68133-3 0  9990
2 45739  53.0526 225.3073 0001524 111.1860 248.9292 15.06321603159629
1 45739U 20038K   23116.51781172  .00006595  00000-0  46149-3 0  9998
2 45739  53.0523 222.0331 0001750  96.6241 263.4947 15.06380204158763
1 45739U 20038K   23116.71685078  .00012800  00000-0  87679-3 0  9997
2 45739  53.0530 221.1398 0001666 103.0763 257.0412 15.06393625158792
1 45739U 20038K   23117.51299635  .00026784  00000-0  18077-2 0  9997
2 45739  53.0526 217.5654 0001654 102.6849 257.4325 15.06450320158915
1 45739U 20038K   23117.51299635  .00026784  00000-0  18077-2 0  9997
2 45739  53.0526 217.5654 0001654 102.6849 257.4325 15.06450320159882
1 45739U 20038K   23118.24281172  .00007564  00000-0  52598-3 0  9997
2 45739  53.0524 214.2890 0003800  81.6318 278.5101 15.06413396159998
1 45739U 20038K   23118.50820656  .00009046  00000-0  62601-3 0  9995
2 45739  53.0527 213.0977 0001364  89.4778 270.6367 15.06365342159065
1 45739U 20038K   23118.50820656  .00009046  00000-0  62601-3 0  9995
2 45739  53.0527 213.0977 0001364  89.4778 270.6367 15.06365342160034
1 45739U 20038K   23119.50342468  .00022101  00000-0  14981-2 0  9990
2 45739  53.0526 208.6298 0001503  83.0693 277.0467 15.06396042159211
1 45739U 20038K   23119.76880940  .00025412  00000-0  17181-2 0  9993
2 45739  53.0522 207.4381 0001459  84.0037 276.1118 15.06414326160222
1 45739U 20038K   23120.49863288  .00013688  00000-0  93624-3 0  9990
2 45739  53.0528 204.1609 0001252  98.0936 262.0195 15.06390234159362
1 45739U 20038K   23120.49863288  .00013688  00000-0  93624-3 0  9990
2 45739  53.0528 204.1609 0001252  98.0936 262.0195 15.06390234160331
1 45739U 20038K   23121.49383145  .00016753  00000-0  11403-2 0  9990
2 45739  53.0539 199.6931 0001386  91.7154 268.3993 15.06420648159515
1 45739U 20038K   23121.62652272  .00017625  00000-0  11983-2 0  9997
2 45739  53.0537 199.0977 0001427  91.4902 268.6251 15.06426372159533
1 45739U 20038K   23121.62652272  .00017625  00000-0  11983-2 0  9997
2 45739  53.0537 199.0977 0001427  91.4902 268.6251 15.06426372160502
1 45739U 20038K   23122.22364094  .00008098  00000-0  56166-3 0  9993
2 45739  53.0540 196.4165 0001377 106.6698 253.4442 15.06417388160591
1 45739U 20038K   23122.48902549  .00010827  00000-0  74420-3 0  9990
2 45739  53.0537 195.2260 0001328 105.8412 254.2723 15.06421910159664
1 45739U 20038K   23122.62171782  .00012720  00000-0  87071-3 0  9993
2 45739  53.0536 194.6304 0001236  98.6967 261.4162 15.06424131159684
1 45739U 20038K   23123.41786001  .00014731  00000-0  10045-2 0  9997
2 45739  53.0538 191.0569 0001244 100.3301 259.7828 15.06446475159800
1 45739U 20038K   23123.41786001  .00014731  00000-0  10045-2 0  9997
2 45739  53.0538 191.0569 0001244 100.3301 259.7828 15.06446475160778
1 45739U 20038K   23124.54575675  .00001394  00000-0  11243-3 0  9998
2 45739  53.0529 185.9933 0001097 111.8676 248.2430 15.06397350160941
1 45739U 20038K   23124.87749321  .00007891  00000-0  54809-3 0  9998
2 45739  53.0525 184.5040 0001107 117.4250 242.6851 15.06395650160028
1 45739U 20038K   23125.54095775  .00010837  00000-0  74507-3 0  9991
2 45739  53.0524 181.5253 0001122 113.6046 246.5060 15.06412342161099
1 45739U 20038K   23125.87270017  .00004839  00000-0  34361-3 0  9990
2 45739  53.0517 180.0379 0001254  85.3815 274.7317 15.06392899160179
1 45739U 20038K   23125.87270017  .00004839  00000-0  34361-3 0  9990
2 45739  53.0517 180.0379 0001254  85.3815 274.7317 15.06392899161147
1 45739U 20038K   23126.33713194  .00001982  00000-0  15192-3 0  9997
2 45739  53.0520 177.9515 0001108 101.0247 259.0867 15.06389636160242
1 45739U 20038K   23126.86791334  .00011739  00000-0  80582-3 0  9993
2 45739  53.0518 175.5687 0001691  91.5333 268.5850 15.06392340161298
1 45739U 20038K   23127.39868084  .00016146  00000-0  10999-2 0  9990
2 45739  53.0518 173.1826 0001167 106.9003 253.2114 15.06414730160404
1 45739U 20038K   23127.39868084  .00016146  00000-0  10999-2 0  9990
2 45739  53.0518 173.1826 0001167 106.9003 253.2114 15.06414730161371
1 45739U 20038K   23128.39388991  .00004891  00000-0  34708-3 0  9994
2 45739  53.0505 168.7179 0001369  84.7670 275.3475 15.06394871160552
1 45739U 20038K   23128.39388991  .00004891  00000-0  34708-3 0  9994
2 45739  53.0505 168.7179 0001369  84.7670 275.3475 15.06394871161520
1 45739U 20038K   23129.32274256  .00004493  00000-0  32025-3 0  9994
2 45739  53.0518 164.5471 0001246  82.5361 277.5769 15.06405651160696
1 45739U 20038K   23130.45064523  .00001274  00000-0  10439-3 0  9993
2 45739  53.0535 159.4882 0001476 100.8448 259.2707 15.06395493160869
1 45739U 20038K   23130.78237702  .00001557  00000-0  12339-3 0  9995
2 45739  53.0539 157.9995 0001485  99.6226 260.4931 15.06400703160910
1 45739U 20038K   23131.37949274  .00003752  00000-0  27061-3 0  9992
2 45739  53.0527 155.3172 0001361  98.6770 261.4374 15.06408602161001
1 45739U 20038K   23131.77757839  .00001361  00000-0  11026-3 0  9998
2 45739  53.0528 153.5305 0001407  85.1599 274.9551 15.06399071162030
1 45739U 20038K   23131.97662305  .00000132  00000-0  27749-4 0  9998
2 45739  53.0519 152.6342 0001388  84.6523 275.4624 15.06390861161090
1 45739U 20038K   23131.97662305  .00000132  00000-0  27749-4 0  9998
2 45739  53.0519 152.6342 0001388  84.6523 275.4624 15.06390861162068
1 45739U 20038K   23132.77278916  .00000348  00000-0  42231-4 0  9990
2 45739  53.0526 149.0599 0001363  83.8125 276.3020 15.06391802161214
1 45739U 20038K   23133.43625682  .00000697  00000-0  65680-4 0  9990
2 45739  53.0524 146.0815 0001342  80.9940 279.1201 15.06398003162280
1 45739U 20038K   23133.76799211  .00000777  00000-0  71085-4 0  9991
2 45739  53.0536 144.5917 0001345  81.9066 278.2075 15.06395960161368
1 45739U 20038K   23134.16607754  .00002067  00000-0  15766-3 0  9993
2 45739  53.0533 142.8051 0001293  82.2959 277.8177 15.06390013162398
1 45739U 20038K   23134.49781192  .00002361  00000-0  17735-3 0  9993
2 45739  53.0526 141.3162 0001324  80.6765 279.4373 15.06395499161476
1 45739U 20038K   23135.16127531  .00002450  00000-0  18328-3 0  9997
2 45739  53.0526 138.3370 0001313  84.5684 275.5455 15.06403919162548
1 45739U 20038K   23135.29396753  .00002584  00000-0  19229-3 0  9994
2 45739  53.0525 137.7419 0001302  83.0292 277.0845 15.06406085161592
